COSMOS 2251 DEB         
1 34819U 93036ABJ 25046.60770388  .00012935  00000+0  27703-2 0  9992
2 34819  74.0233 357.2695 0018546 175.1268 358.3043 14.58650028838449
COSMOS 2251 DEB         
1 34823U 93036ABN 25046.14540699  .00004321  00000+0  89748-3 0  9994
2 34823  74.0427 310.2338 0159744 110.9805 250.8532 14.52659789840137
COSMOS 2251 DEB         
1 34845U 93036ABP 25043.60542528  .00001780  00000+0  51577-3 0  9994
2 34845  74.0288 353.7999 0023545 232.0346 127.8685 14.45021392836082
COSMOS 2251 DEB         
1 34846U 93036ABQ 25046.58418201  .00004307  00000+0  12384-2 0  9995
2 34846  74.0306 102.0756 0028767 250.0579 109.7479 14.44871995830657
COSMOS 2251 DEB         
1 34847U 93036ABR 25046.32628277  .00088875  00000+0  20146-2 0  9991
2 34847  74.0025 275.5817 0034559  51.8081 308.6231 15.42048653635768
COSMOS 2251 DEB         
1 34852U 93036ABW 25045.40780462  .00000565  00000+0  20045-3 0  9999
2 34852  74.0313  97.0402 0017938 277.4255  82.4859 14.36690238832061
COSMOS 2251 DEB         
1 34854U 93036ABY 25045.65509628  .00007175  00000+0  10776-2 0  9994
2 34854  74.0323  27.0832 0071674 217.9357 141.6756 14.72952166674433
COSMOS 2251 DEB         
1 34856U 93036ACA 25046.55033734  .00025569  00000+0  25137-2 0  9990
2 34856  74.0053 334.5876 0051530 188.8723 344.3975 14.91030999846169
COSMOS 2251 DEB         
1 34857U 93036ACB 25046.49512833  .00006904  00000+0  15395-2 0  9993
2 34857  74.0191 317.9633 0070609 157.2824  15.6840 14.55479433835278
COSMOS 2251 DEB         
1 34859U 93036ACD 25046.54308958  .00040421  00000+0  46888-2 0  9995
2 34859  74.0332 228.2678 0008472  81.0451 335.4911 14.85195192838634
COSMOS 2251 DEB         
1 34861U 93036ACF 25046.37902868  .00043526  00000+0  55065-2 0  9995
2 34861  74.0202 294.2860 0008824 106.3635  15.0742 14.81570640836132
COSMOS 2251 DEB         
1 34874U 93036ACM 25046.35033128  .00002987  00000+0  10554-2 0  9991
2 34874  74.0376 264.5826 0053015   4.2584 169.3107 14.34307178827344
COSMOS 2251 DEB         
1 34875U 93036ACN 25046.32338078  .00003589  00000+0  98067-3 0  9996
2 34875  74.0481   0.4759 0017094 205.3399 306.9595 14.47546138834061
COSMOS 2251 DEB         
1 34878U 93036ACR 25045.76693001  .00001969  00000+0  19485-2 0  9992
2 34878  73.9665 164.6427 0437917 206.5214 310.6926 13.43617585772296
COSMOS 2251 DEB         
1 34882U 93036ACV 25046.49260390  .00001750  00000+0  34694-3 0  9997
2 34882  74.0452  79.3002 0085619 284.1430  75.0233 14.60758721841397
COSMOS 2251 DEB         
1 34883U 93036ACW 25046.53772168  .00023162  00000+0  67232-2 0  9998
2 34883  74.2008 257.3969 0115364 164.8286 195.6380 14.40431655821001
COSMOS 2251 DEB         
1 34884U 93036ACX 25045.95989862  .00024106  00000+0  35642-2 0  9994
2 34884  74.0226 291.8574 0009679 119.8820 251.7484 14.75095950833499
COSMOS 2251 DEB         
1 34885U 93036ACY 25046.39280674  .00005843  00000+0  15367-2 0  9998
2 34885  74.0337  27.5699 0016410 198.4836 313.0395 14.49225664831248
COSMOS 2251 DEB         
1 34886U 93036ACZ 25046.40825128  .00037874  00000+0  22494-2 0  9998
2 34886  73.9643  95.5951 0062245 348.7471  11.2324 15.09479814584299
COSMOS 2251 DEB         
1 34907U 93036ADC 25046.15086455  .00049859  00000+0  56003-2 0  9995
2 34907  74.0034 306.1526 0008751 146.4360   3.8229 14.86452398834505
COSMOS 2251 DEB         
1 34908U 93036ADD 25045.52557684  .00002944  00000+0  10111-2 0  9997
2 34908  74.0564 216.5837 0042012 310.8161 116.6399 14.36029228829532
COSMOS 2251 DEB         
1 34909U 93036ADE 25046.43917343  .00005848  00000+0  82391-3 0  9997
2 34909  74.0160 305.5337 0089440 157.7839 202.7249 14.74745361624208
COSMOS 2251 DEB         
1 34910U 93036ADF 25046.46467933  .00000893  00000+0  92891-3 0  9998
2 34910  73.8732 215.0519 0469871  24.8831   6.4361 13.37103364775104
COSMOS 2251 DEB         
1 34911U 93036ADG 25045.91968743  .00001200  00000+0  25094-3 0  9997
2 34911  74.0400  97.7927 0086152 300.2739 234.3933 14.58727197841991
COSMOS 2251 DEB         
1 34913U 93036ADJ 25045.94779116  .00000223  00000+0  88066-4 0  9999
2 34913  74.0274 113.6903 0022222 297.5354 236.5700 14.34513920831595
COSMOS 2251 DEB         
1 34914U 93036ADK 25044.57570466  .00214656  00000+0  54242-2 0  9999
2 34914  73.9740 349.1250 0042234 323.0370  36.7927 15.37991907846610
COSMOS 2251 DEB         
1 34918U 93036ADP 25045.32216021  .00018555  00000+0  43040-2 0  9995
2 34918  74.0734 165.8418 0033885 212.9509 177.8655 14.54633734609431
COSMOS 2251 DEB         
1 34920U 93036ADR 25042.61625456  .00079847  00000+0  57404-2 0  9993
2 34920  74.0051 267.2540 0009449 129.2918 230.9110 15.03797918838512
COSMOS 2251 DEB         
1 34924U 93036ADV 25046.48622627  .00007073  00000+0  15512-2 0  9999
2 34924  74.0432 300.7877 0058088 102.4530 315.1965 14.56733513833462
COSMOS 2251 DEB         
1 34944U 93036ADX 25046.42291142  .00004676  00000+0  19870-2 0  9996
2 34944  73.7483  53.3030 0226259 308.7847  49.3270 14.12747428598394
COSMOS 2251 DEB         
1 34946U 93036ADZ 25046.39289990  .00006115  00000+0  12666-2 0  9998
2 34946  74.0231 196.5009 0052313  46.9973 313.5557 14.59584115838233
COSMOS 2251 DEB         
1 34948U 93036AEB 25046.10264205  .00225370  00000+0  99558-2 0  9992
2 34948  73.9864 286.1718 0014274 129.5634  20.6054 15.20559642835651
COSMOS 2251 DEB         
1 34949U 93036AEC 25046.47121124  .00004987  00000+0  76483-3 0  9997
2 34949  74.0226 335.1000 0084274 197.2006 162.6308 14.71503074839417
COSMOS 2251 DEB         
1 34951U 93036AEE 25046.48090167  .00067871  00000+0  42310-2 0  9995
2 34951  74.0043 315.8738 0034966 168.7734 191.4245 15.08685819842822
COSMOS 2251 DEB         
1 34953U 93036AEG 25046.53103458  .00008704  00000+0  15926-2 0  9994
2 34953  74.0914 244.8435 0061280 319.4575  69.9623 14.64754259837260
COSMOS 2251 DEB         
1 34954U 93036AEH 25039.87153772  .00083814  00000+0  63446-2 0  9993
2 34954  73.9658 264.7160 0017592 127.3510 232.9284 15.01737950834591
COSMOS 2251 DEB         
1 34955U 93036AEJ 25046.59002659  .00014177  00000+0  12319-2 0  9997
2 34955  74.0404 133.8515 0089430 286.1641  72.9713 14.93933642855422
COSMOS 2251 DEB         
1 34958U 93036AEM 25045.92701613  .00052901  00000+0  15994-2 0  9991
2 34958  73.9984 253.0398 0062913  56.5885 304.1314 15.31989022861268
COSMOS 2251 DEB         
1 34962U 93036AER 25046.36748688  .00003476  00000+0  99831-3 0  9994
2 34962  74.0312  33.8586 0020478 227.2438 132.6997 14.45119646832376
COSMOS 2251 DEB         
1 34963U 93036AES 25046.26224743  .00009541  00000+0  25885-2 0  9991
2 34963  74.1703 241.6859 0045436 159.6295 200.6691 14.47088854824482
COSMOS 2251 DEB         
1 34964U 93036AET 25034.63557591  .00006316  00000+0  36606-2 0  9990
2 34964  73.9857 169.9780 0215883  94.1927 268.3908 13.97971913801124
COSMOS 2251 DEB         
1 34965U 93036AEU 25046.51624502  .00002236  00000+0  61023-3 0  9997
2 34965  74.0554 330.0863 0026559 175.7088 184.4304 14.47721666827678
COSMOS 2251 DEB         
1 34967U 93036AEW 25044.41045471  .00002969  00000+0  89684-3 0  9994
2 34967  73.9938  97.0285 0042905 313.9840  45.7781 14.42335262605958
COSMOS 2251 DEB         
1 34968U 93036AEX 25046.38840249  .00001426  00000+0  29579-3 0  9993
2 34968  74.0379  99.3212 0089243 296.4876  62.7156 14.58714639840979
COSMOS 2251 DEB         
1 34969U 93036AEY 25044.72317331  .00001431  00000+0  53157-3 0  9996
2 34969  74.0124 214.6828 0074996  57.8845 302.9555 14.31497674608148
COSMOS 2251 DEB         
1 34971U 93036AFA 25045.52843730  .00001380  00000+0  31788-3 0  9994
2 34971  73.9789 137.5049 0069901  72.6516 302.9947 14.54855562617913
COSMOS 2251 DEB         
1 34972U 93036AFB 25046.06232934  .00011706  00000+0  21370-2 0  9991
2 34972  73.9890 273.8675 0042083 143.6192   6.6310 14.65442209832347
COSMOS 2251 DEB         
1 34976U 93036AFF 25046.11796615  .00014450  00000+0  22967-2 0  9994
2 34976  74.0603 172.0150 0052353 301.7796 231.9824 14.71170648838443
COSMOS 2251 DEB         
1 34979U 93036AFJ 25046.48076603  .00013293  00000+0  20067-2 0  9998
2 34979  74.0433 135.1173 0057376 294.7553  64.7655 14.73226310837896
COSMOS 2251 DEB         
1 34989U 93036AFM 25046.36442930  .00058505  00000+0  50850-2 0  9994
2 34989  74.0055 141.9062 0022936 348.0490  12.0147 14.96478613836190
COSMOS 2251 DEB         
1 34990U 93036AFN 25040.89162529  .00002310  00000+0  72149-3 0  9990
2 34990  74.0459  97.8497 0017760 245.5057 114.4247 14.41262328830646
COSMOS 2251 DEB         
1 34997U 93036AFV 25040.63700316  .00009706  00000+0  28138-2 0  9995
2 34997  73.8825 165.7434 0100413 204.9041 154.7253 14.41584992663296
COSMOS 2251 DEB         
1 34998U 93036AFW 25046.31540184  .00004776  00000+0  13004-2 0  9990
2 34998  74.0149   3.6009 0023261 225.4526 284.5489 14.47547100830709
COSMOS 2251 DEB         
1 35000U 93036AFY 25045.16963047  .00046529  00000+0  38271-2 0  9999
2 35000  74.0221 111.4576 0042326 275.9514  83.6849 14.98189243839312
COSMOS 2251 DEB         
1 35012U 93036AFZ 25046.46511620  .00000821  00000+0  23334-3 0  9992
2 35012  74.0215 311.9522 0081204 165.7042 194.6441 14.45063756832233
COSMOS 2251 DEB         
1 35014U 93036AGB 25042.35631471  .00011982  00000+0  21315-2 0  9991
2 35014  74.0007 276.1827 0012534 149.8643 210.3250 14.67120797668609
COSMOS 2251 DEB         
1 35015U 93036AGC 25045.85619847  .00004523  00000+0  12782-2 0  9994
2 35015  73.9467  78.8840 0078604  12.2353 160.6967 14.44127076610927
COSMOS 2251 DEB         
1 35016U 93036AGD 25045.97563664  .00001897  00000+0  63963-3 0  9992
2 35016  73.9309 129.0435 0113358 110.0930  62.3202 14.34093671824699
COSMOS 2251 DEB         
1 35018U 93036AGF 25046.25349870  .00003118  00000+0  25113-2 0  9999
2 35018  73.9766 244.3312 0351623 214.5332 143.2490 13.65706676790811
